{
  "type": "FeatureCollection",
  "features": [
    {
      "type": "Feature",
      "properties": {
        "norad_id": 50032,
        "name": "COSMOS 1408 DEB",
        "group": "cosmos-1408-debris",
        "lat": -50.06112355081993,
        "lon": -106.23383280235437,
        "alt_km": 426.5247519809982,
        "timestamp": "2025-12-06T14:35:37.396573+00:00",
        "meta_object_name": "COSMOS 1408 DEB",
        "meta_object_id": "1982-092RU",
        "meta_epoch": "2025-12-06T05:49:46.068384",
        "meta_mean_motion": 15.45595735,
        "meta_eccentricity": 0.00147662,
        "meta_inclination": 82.5649,
        "meta_ra_of_asc_node": 65.1671,
        "meta_arg_of_pericenter": 233.9389,
        "meta_mean_anomaly": 126.0493,
        "meta_ephemeris_type": 0,
        "meta_classification_type": "U",
        "meta_norad_cat_id": 50032,
        "meta_element_set_no": 999,
        "meta_rev_at_epoch": 22503,
        "meta_bstar": 0.00018639408,
        "meta_mean_motion_dot": 9.041e-05,
        "meta_mean_motion_ddot": 0,
        "tle_line1": "1 50032U 82092RU  25340.24289431  .00009041  00000+0  18639-3 0  9991",
        "tle_line2": "2 50032  82.5649  65.1671 0014766 233.9389 126.0493 15.45595735225039"
      },
      "geometry": {
        "type": "Point",
        "coordinates": [
          -106.23383280235437,
          -50.06112355081993
        ]
      }
    },
    {
      "type": "Feature",
      "properties": {
        "norad_id": 50058,
        "name": "COSMOS 1408 DEB",
        "group": "cosmos-1408-debris",
        "lat": 31.108461809218632,
        "lon": 80.24639990492653,
        "alt_km": 375.56751156944665,
        "timestamp": "2025-12-06T14:35:37.396594+00:00",
        "meta_object_name": "COSMOS 1408 DEB",
        "meta_object_id": "1982-092SW",
        "meta_epoch": "2025-12-06T03:42:28.069056",
        "meta_mean_motion": 15.63525436,
        "meta_eccentricity": 0.00162546,
        "meta_inclination": 82.6137,
        "meta_ra_of_asc_node": 76.2308,
        "meta_arg_of_pericenter": 122.1588,
        "meta_mean_anomaly": 238.125,
        "meta_ephemeris_type": 0,
        "meta_classification_type": "U",
        "meta_norad_cat_id": 50058,
        "meta_element_set_no": 999,
        "meta_rev_at_epoch": 22701,
        "meta_bstar": 0.00049335108,
        "meta_mean_motion_dot": 0.00046144,
        "meta_mean_motion_ddot": 0,
        "tle_line1": "1 50058U 82092SW  25340.15449154  .00046144  00000+0  49335-3 0  9991",
        "tle_line2": "2 50058  82.6137  76.2308 0016254 122.1588 238.1250 15.63525436227011"
      },
      "geometry": {
        "type": "Point",
        "coordinates": [
          80.24639990492653,
          31.108461809218632
        ]
      }
    },
    {
      "type": "Feature",
      "properties": {
        "norad_id": 50404,
        "name": "COSMOS 1408 DEB",
        "group": "cosmos-1408-debris",
        "lat": 2.353960543420966,
        "lon": 40.98219186525345,
        "alt_km": 441.5362346272195,
        "timestamp": "2025-12-06T14:35:37.396608+00:00",
        "meta_object_name": "COSMOS 1408 DEB",
        "meta_object_id": "1982-092ADS",
        "meta_epoch": "2025-12-06T02:41:05.955072",
        "meta_mean_motion": 15.12434812,
        "meta_eccentricity": 0.01747261,
        "meta_inclination": 82.2047,
        "meta_ra_of_asc_node": 221.8118,
        "meta_arg_of_pericenter": 221.7921,
        "meta_mean_anomaly": 136.9859,
        "meta_ephemeris_type": 0,
        "meta_classification_type": "U",
        "meta_norad_cat_id": 50404,
        "meta_element_set_no": 999,
        "meta_rev_at_epoch": 21093,
        "meta_bstar": 0.0038004271,
        "meta_mean_motion_dot": 0.00097112,
        "meta_mean_motion_ddot": 0,
        "tle_line1": "1 50404U 82092ADS 25340.11187448  .00097112  00000+0  38004-2 0  9998",
        "tle_line2": "2 50404  82.2047 221.8118 0174726 221.7921 136.9859 15.12434812210939"
      },
      "geometry": {
        "type": "Point",
        "coordinates": [
          40.98219186525345,
          2.353960543420966
        ]
      }
    },
    {
      "type": "Feature",
      "properties": {
        "norad_id": 50621,
        "name": "COSMOS 1408 DEB",
        "group": "cosmos-1408-debris",
        "lat": -31.244435541789088,
        "lon": -94.89779794547306,
        "alt_km": 389.1081941644952,
        "timestamp": "2025-12-06T14:35:37.396620+00:00",
        "meta_object_name": "COSMOS 1408 DEB",
        "meta_object_id": "1982-092ALR",
        "meta_epoch": "2025-12-06T05:58:21.140256",
        "meta_mean_motion": 15.56160395,
        "meta_eccentricity": 0.00287722,
        "meta_inclination": 82.5723,
        "meta_ra_of_asc_node": 80.9361,
        "meta_arg_of_pericenter": 176.4358,
        "meta_mean_anomaly": 183.7108,
        "meta_ephemeris_type": 0,
        "meta_classification_type": "U",
        "meta_norad_cat_id": 50621,
        "meta_element_set_no": 999,
        "meta_rev_at_epoch": 22149,
        "meta_bstar": 0.00059401028,
        "meta_mean_motion_dot": 0.00042512,
        "meta_mean_motion_ddot": 0,
        "tle_line1": "1 50621U 82092ALR 25340.24885579  .00042512  00000+0  59401-3 0  9992",
        "tle_line2": "2 50621  82.5723  80.9361 0028772 176.4358 183.7108 15.56160395221497"
      },
      "geometry": {
        "type": "Point",
        "coordinates": [
          -94.89779794547306,
          -31.244435541789088
        ]
      }
    }
  ]
}